CCSDS_OMM_VERS = 2.0
CREATION_DATE  = 
ORIGINATOR     = 

OBJECT_NAME    = ATLAS CENTAUR 2
OBJECT_ID      = 1963-047A
CENTER_NAME    = EARTH
REF_FRAME      = TEME
TIME_SYSTEM    = UTC
MEAN_ELEMENT_THEORY = SGP/SGP4

EPOCH          = 2026-02-06T22:25:28.424928
MEAN_MOTION    = 14.11982323
ECCENTRICITY   = .05481111
INCLINATION    = 30.3558
RA_OF_ASC_NODE = 7.5057
ARG_OF_PERICENTER = 169.2827
MEAN_ANOMALY   = 192.0000

EPHEMERIS_TYPE = 0
CLASSIFICATION_TYPE = U
NORAD_CAT_ID   = 694
ELEMENT_SET_NO = 999
REV_AT_EPOCH   = 12727
BSTAR          = .199981E-3
MEAN_MOTION_DOT = .1741E-4
MEAN_MOTION_DDOT = 0

CCSDS_OMM_VERS = 2.0
CREATION_DATE  = 
ORIGINATOR     = 

OBJECT_NAME    = THOR AGENA D R/B
OBJECT_ID      = 1964-002A
CENTER_NAME    = EARTH
REF_FRAME      = TEME
TIME_SYSTEM    = UTC
MEAN_ELEMENT_THEORY = SGP/SGP4

EPOCH          = 2026-02-06T23:04:13.909440
MEAN_MOTION    = 14.34000948
ECCENTRICITY   = .00327149
INCLINATION    = 99.1229
RA_OF_ASC_NODE = 49.6255
ARG_OF_PERICENTER = 349.7282
MEAN_ANOMALY   = 10.3229

EPHEMERIS_TYPE = 0
CLASSIFICATION_TYPE = U
NORAD_CAT_ID   = 733
ELEMENT_SET_NO = 999
REV_AT_EPOCH   = 23389
BSTAR          = .14051141E-3
MEAN_MOTION_DOT = .346E-5
MEAN_MOTION_DDOT = 0

CCSDS_OMM_VERS = 2.0
CREATION_DATE  = 
ORIGINATOR     = 

OBJECT_NAME    = SL-3 R/B
OBJECT_ID      = 1964-053B
CENTER_NAME    = EARTH
REF_FRAME      = TEME
TIME_SYSTEM    = UTC
MEAN_ELEMENT_THEORY = SGP/SGP4

EPOCH          = 2026-02-06T01:47:56.861088
MEAN_MOTION    = 14.61334532
ECCENTRICITY   = .00781573
INCLINATION    = 65.0763
RA_OF_ASC_NODE = 63.9220
ARG_OF_PERICENTER = 302.2599
MEAN_ANOMALY   = 57.0943

EPHEMERIS_TYPE = 0
CLASSIFICATION_TYPE = U
NORAD_CAT_ID   = 877
ELEMENT_SET_NO = 999
REV_AT_EPOCH   = 26217
BSTAR          = .11545813E-3
MEAN_MOTION_DOT = .471E-5
MEAN_MOTION_DDOT = 0

CCSDS_OMM_VERS = 2.0
CREATION_DATE  = 
ORIGINATOR     = 

OBJECT_NAME    = SL-8 R/B
OBJECT_ID      = 1967-045B
CENTER_NAME    = EARTH
REF_FRAME      = TEME
TIME_SYSTEM    = UTC
MEAN_ELEMENT_THEORY = SGP/SGP4

EPOCH          = 2026-02-06T23:41:48.100992
MEAN_MOTION    = 14.45592533
ECCENTRICITY   = .00630228
INCLINATION    = 74.0100
RA_OF_ASC_NODE = 45.4252
ARG_OF_PERICENTER = 59.4885
MEAN_ANOMALY   = 301.2473

EPHEMERIS_TYPE = 0
CLASSIFICATION_TYPE = U
NORAD_CAT_ID   = 2802
ELEMENT_SET_NO = 999
REV_AT_EPOCH   = 8458
BSTAR          = .11591146E-3
MEAN_MOTION_DOT = .392E-5
MEAN_MOTION_DDOT = 0

CCSDS_OMM_VERS = 2.0
CREATION_DATE  = 
ORIGINATOR     = 

OBJECT_NAME    = SL-8 R/B
OBJECT_ID      = 1968-040B
CENTER_NAME    = EARTH
REF_FRAME      = TEME
TIME_SYSTEM    = UTC
MEAN_ELEMENT_THEORY = SGP/SGP4

EPOCH          = 2026-02-06T23:03:31.869792
MEAN_MOTION    = 15.03023510
ECCENTRICITY   = .00254383
INCLINATION    = 74.0325
RA_OF_ASC_NODE = 16.4672
ARG_OF_PERICENTER = 209.3127
MEAN_ANOMALY   = 150.6637

EPHEMERIS_TYPE = 0
CLASSIFICATION_TYPE = U
NORAD_CAT_ID   = 3230
ELEMENT_SET_NO = 999
REV_AT_EPOCH   = 8539
BSTAR          = .37830951E-3
MEAN_MOTION_DOT = .509E-4
MEAN_MOTION_DDOT = 0

CCSDS_OMM_VERS = 2.0
CREATION_DATE  = 
ORIGINATOR     = 

OBJECT_NAME    = OAO 2
OBJECT_ID      = 1968-110A
CENTER_NAME    = EARTH
REF_FRAME      = TEME
TIME_SYSTEM    = UTC
MEAN_ELEMENT_THEORY = SGP/SGP4

EPOCH          = 2026-02-06T04:28:37.060320
MEAN_MOTION    = 14.47288338
ECCENTRICITY   = .00060185
INCLINATION    = 34.9935
RA_OF_ASC_NODE = 81.1080
ARG_OF_PERICENTER = 302.2637
MEAN_ANOMALY   = 57.7470

EPHEMERIS_TYPE = 0
CLASSIFICATION_TYPE = U
NORAD_CAT_ID   = 3597
ELEMENT_SET_NO = 999
REV_AT_EPOCH   = 1453
BSTAR          = .11313182E-3
MEAN_MOTION_DOT = .401E-5
MEAN_MOTION_DDOT = 0

CCSDS_OMM_VERS = 2.0
CREATION_DATE  = 
ORIGINATOR     = 

OBJECT_NAME    = ISIS 1
OBJECT_ID      = 1969-009A
CENTER_NAME    = EARTH
REF_FRAME      = TEME
TIME_SYSTEM    = UTC
MEAN_ELEMENT_THEORY = SGP/SGP4

EPOCH          = 2026-02-06T19:53:10.595040
MEAN_MOTION    = 11.30400927
ECCENTRICITY   = .17078375
INCLINATION    = 88.4554
RA_OF_ASC_NODE = 158.6712
ARG_OF_PERICENTER = 151.4301
MEAN_ANOMALY   = 219.2205

EPHEMERIS_TYPE = 0
CLASSIFICATION_TYPE = U
NORAD_CAT_ID   = 3669
ELEMENT_SET_NO = 999
REV_AT_EPOCH   = 34504
BSTAR          = .30305158E-3
MEAN_MOTION_DOT = .442E-5
MEAN_MOTION_DDOT = 0

CCSDS_OMM_VERS = 2.0
CREATION_DATE  = 
ORIGINATOR     = 

OBJECT_NAME    = SERT 2
OBJECT_ID      = 1970-009A
CENTER_NAME    = EARTH
REF_FRAME      = TEME
TIME_SYSTEM    = UTC
MEAN_ELEMENT_THEORY = SGP/SGP4

EPOCH          = 2026-02-06T20:15:50.641632
MEAN_MOTION    = 13.58726656
ECCENTRICITY   = .00040513
INCLINATION    = 99.2721
RA_OF_ASC_NODE = 342.6326
ARG_OF_PERICENTER = 240.4332
MEAN_ANOMALY   = 178.7127

EPHEMERIS_TYPE = 0
CLASSIFICATION_TYPE = U
NORAD_CAT_ID   = 4327
ELEMENT_SET_NO = 999
REV_AT_EPOCH   = 77570
BSTAR          = .12516696E-3
MEAN_MOTION_DOT = .5E-6
MEAN_MOTION_DDOT = 0

CCSDS_OMM_VERS = 2.0
CREATION_DATE  = 
ORIGINATOR     = 

OBJECT_NAME    = SL-3 R/B
OBJECT_ID      = 1971-028B
CENTER_NAME    = EARTH
REF_FRAME      = TEME
TIME_SYSTEM    = UTC
MEAN_ELEMENT_THEORY = SGP/SGP4

EPOCH          = 2026-02-06T19:11:23.267040
MEAN_MOTION    = 15.58698525
ECCENTRICITY   = .00175942
INCLINATION    = 81.2350
RA_OF_ASC_NODE = 90.1147
ARG_OF_PERICENTER = 43.2271
MEAN_ANOMALY   = 317.0358

EPHEMERIS_TYPE = 0
CLASSIFICATION_TYPE = U
NORAD_CAT_ID   = 5118
ELEMENT_SET_NO = 999
REV_AT_EPOCH   = 98385
BSTAR          = .45039667E-3
MEAN_MOTION_DOT = .35003E-3
MEAN_MOTION_DDOT = 0

CCSDS_OMM_VERS = 2.0
CREATION_DATE  = 
ORIGINATOR     = 

OBJECT_NAME    = ASTEX 1
OBJECT_ID      = 1971-089A
CENTER_NAME    = EARTH
REF_FRAME      = TEME
TIME_SYSTEM    = UTC
MEAN_ELEMENT_THEORY = SGP/SGP4

EPOCH          = 2026-02-06T20:27:55.670688
MEAN_MOTION    = 14.50732921
ECCENTRICITY   = .00155113
INCLINATION    = 92.7152
RA_OF_ASC_NODE = 141.7827
ARG_OF_PERICENTER = 180.6225
MEAN_ANOMALY   = 179.4964

EPHEMERIS_TYPE = 0
CLASSIFICATION_TYPE = U
NORAD_CAT_ID   = 5560
ELEMENT_SET_NO = 999
REV_AT_EPOCH   = 85783
BSTAR          = .21746037E-3
MEAN_MOTION_DOT = .855E-5
MEAN_MOTION_DDOT = 0

CCSDS_OMM_VERS = 2.0
CREATION_DATE  = 
ORIGINATOR     = 

OBJECT_NAME    = SL-8 R/B
OBJECT_ID      = 1971-119B
CENTER_NAME    = EARTH
REF_FRAME      = TEME
TIME_SYSTEM    = UTC
MEAN_ELEMENT_THEORY = SGP/SGP4

EPOCH          = 2026-02-06T23:06:22.228992
MEAN_MOTION    = 14.36922346
ECCENTRICITY   = .0553975
INCLINATION    = 73.8852
RA_OF_ASC_NODE = 233.1150
ARG_OF_PERICENTER = 206.0517
MEAN_ANOMALY   = 151.1779

EPHEMERIS_TYPE = 0
CLASSIFICATION_TYPE = U
NORAD_CAT_ID   = 5730
ELEMENT_SET_NO = 999
REV_AT_EPOCH   = 65107
BSTAR          = .68336482E-3
MEAN_MOTION_DOT = .13169E-3
MEAN_MOTION_DDOT = 0

CCSDS_OMM_VERS = 2.0
CREATION_DATE  = 
ORIGINATOR     = 

OBJECT_NAME    = OAO 3 (COPERNICUS)
OBJECT_ID      = 1972-065A
CENTER_NAME    = EARTH
REF_FRAME      = TEME
TIME_SYSTEM    = UTC
MEAN_ELEMENT_THEORY = SGP/SGP4

EPOCH          = 2026-02-06T06:34:56.141760
MEAN_MOTION    = 14.59969687
ECCENTRICITY   = .00072511
INCLINATION    = 35.0054
RA_OF_ASC_NODE = 116.2956
ARG_OF_PERICENTER = 264.9979
MEAN_ANOMALY   = 137.3252

EPHEMERIS_TYPE = 0
CLASSIFICATION_TYPE = U
NORAD_CAT_ID   = 6153
ELEMENT_SET_NO = 999
REV_AT_EPOCH   = 84160
BSTAR          = .12317777E-3
MEAN_MOTION_DOT = .579E-5
MEAN_MOTION_DDOT = 0

