ATLAS CENTAUR 2         
1 00694U 63047A   26037.93435677  .00001741  00000+0  19998-3 0  9992
2 00694  30.3558   7.5057 0548111 169.2827 192.0000 14.11982323127279
THOR AGENA D R/B        
1 00733U 64002A   26037.96127210  .00000346  00000+0  14051-3 0  9997
2 00733  99.1229  49.6255 0032714 349.7282  10.3229 14.34000948233895
SL-3 R/B                
1 00877U 64053B   26037.07496367  .00000471  00000+0  11546-3 0  9991
2 00877  65.0763  63.9220 0078157 302.2599  57.0943 14.61334532262179
SL-8 R/B                
1 02802U 67045B   26037.98736228  .00000392  00000+0  11591-3 0  9990
2 02802  74.0100  45.4252 0063022  59.4885 301.2473 14.45592533 84586
SL-8 R/B                
1 03230U 68040B   26037.96078553  .00005090  00000+0  37831-3 0  9995
2 03230  74.0325  16.4672 0025438 209.3127 150.6637 15.03023510 85396
OAO 2                   
1 03597U 68110A   26037.18654005  .00000401  00000+0  11313-3 0  9993
2 03597  34.9935  81.1080 0006018 302.2637  57.7470 14.47288338 14536
ISIS 1                  
1 03669U 69009A   26037.82859485  .00000442  00000+0  30305-3 0  9998
2 03669  88.4554 158.6712 1707837 151.4301 219.2205 11.30400927345042
SERT 2                  
1 04327U 70009A   26037.84433613  .00000050  00000+0  12517-3 0  9995
2 04327  99.2721 342.6326 0004051 240.4332 178.7127 13.58726656775700
SL-3 R/B                
1 05118U 71028B   26037.79957485  .00035003  00000+0  45040-3 0  9991
2 05118  81.2350  90.1147 0017594  43.2271 317.0358 15.58698525983857
ASTEX 1                 
1 05560U 71089A   26037.85272767  .00000855  00000+0  21746-3 0  9993
2 05560  92.7152 141.7827 0015511 180.6225 179.4964 14.50732921857836
SL-8 R/B                
1 05730U 71119B   26037.96275728  .00013169  00000+0  68336-3 0  9996
2 05730  73.8852 233.1150 0553975 206.0517 151.1779 14.36922346651070
OAO 3 (COPERNICUS)      
1 06153U 72065A   26037.27426090  .00000579  00000+0  12318-3 0  9991
2 06153  35.0054 116.2956 0007251 264.9979 137.3252 14.59969687841601
